[{"OBJECT_NAME":"AETHER-2","OBJECT_ID":"2023-174AV","EPOCH":"2026-03-09T17:13:49.792224","MEAN_MOTION":15.33264165,"ECCENTRICITY":0.00086301,"INCLINATION":97.3931,"RA_OF_ASC_NODE":151.9008,"ARG_OF_PERICENTER":139.5247,"MEAN_ANOMALY":220.6639,"EPHEMERIS_TYPE":0,"CLASSIFICATION_TYPE":"U","NORAD_CAT_ID":58299,"ELEMENT_SET_NO":999,"REV_AT_EPOCH":12998,"BSTAR":0.00026165949,"MEAN_MOTION_DOT":8.341e-5,"MEAN_MOTION_DDOT":0},{"OBJECT_NAME":"STARLINK-34776","OBJECT_ID":"2025-161Y","EPOCH":"2026-03-09T22:11:36.569184","MEAN_MOTION":15.30176973,"ECCENTRICITY":0.00011932,"INCLINATION":53.1572,"RA_OF_ASC_NODE":293.2663,"ARG_OF_PERICENTER":55.4742,"MEAN_ANOMALY":304.6371,"EPHEMERIS_TYPE":0,"CLASSIFICATION_TYPE":"U","NORAD_CAT_ID":65037,"ELEMENT_SET_NO":999,"REV_AT_EPOCH":3426,"BSTAR":0.00051644763,"MEAN_MOTION_DOT":0.00014957,"MEAN_MOTION_DDOT":0}]
